CCSDS_OMM_VERS = 2.0
CREATION_DATE  = 
ORIGINATOR     = 

OBJECT_NAME    = SL-3 R/B
OBJECT_ID      = 1982-079B
CENTER_NAME    = EARTH
REF_FRAME      = TEME
TIME_SYSTEM    = UTC
MEAN_ELEMENT_THEORY = SGP/SGP4

EPOCH          = 2026-02-16T12:48:38.095200
MEAN_MOTION    = 15.24469666
ECCENTRICITY   = .00242661
INCLINATION    = 81.1444
RA_OF_ASC_NODE = 218.0513
ARG_OF_PERICENTER = 237.0579
MEAN_ANOMALY   = 122.8321

EPHEMERIS_TYPE = 0
CLASSIFICATION_TYPE = U
NORAD_CAT_ID   = 13403
ELEMENT_SET_NO = 999
REV_AT_EPOCH   = 37447
BSTAR          = .26199378E-3
MEAN_MOTION_DOT = .6513E-4
MEAN_MOTION_DDOT = 0

CCSDS_OMM_VERS = 2.0
CREATION_DATE  = 
ORIGINATOR     = 

OBJECT_NAME    = SL-14 R/B
OBJECT_ID      = 1982-092B
CENTER_NAME    = EARTH
REF_FRAME      = TEME
TIME_SYSTEM    = UTC
MEAN_ELEMENT_THEORY = SGP/SGP4

EPOCH          = 2026-02-16T08:58:53.670720
MEAN_MOTION    = 14.86643048
ECCENTRICITY   = .00206764
INCLINATION    = 82.5709
RA_OF_ASC_NODE = 161.3304
ARG_OF_PERICENTER = 16.3178
MEAN_ANOMALY   = 43.0304

EPHEMERIS_TYPE = 0
CLASSIFICATION_TYPE = U
NORAD_CAT_ID   = 13553
ELEMENT_SET_NO = 999
REV_AT_EPOCH   = 32576
BSTAR          = .61472696E-4
MEAN_MOTION_DOT = .572E-5
MEAN_MOTION_DDOT = 0

CCSDS_OMM_VERS = 2.0
CREATION_DATE  = 
ORIGINATOR     = 

OBJECT_NAME    = SL-3 R/B
OBJECT_ID      = 1983-010B
CENTER_NAME    = EARTH
REF_FRAME      = TEME
TIME_SYSTEM    = UTC
MEAN_ELEMENT_THEORY = SGP/SGP4

EPOCH          = 2026-02-16T09:37:46.111296
MEAN_MOTION    = 15.45565090
ECCENTRICITY   = .00184532
INCLINATION    = 81.1025
RA_OF_ASC_NODE = 28.3298
ARG_OF_PERICENTER = 117.8926
MEAN_ANOMALY   = 242.4190

EPHEMERIS_TYPE = 0
CLASSIFICATION_TYPE = U
NORAD_CAT_ID   = 13819
ELEMENT_SET_NO = 999
REV_AT_EPOCH   = 35465
BSTAR          = .34394219E-3
MEAN_MOTION_DOT = .16678E-3
MEAN_MOTION_DDOT = 0

CCSDS_OMM_VERS = 2.0
CREATION_DATE  = 
ORIGINATOR     = 

OBJECT_NAME    = SL-3 R/B
OBJECT_ID      = 1983-075B
CENTER_NAME    = EARTH
REF_FRAME      = TEME
TIME_SYSTEM    = UTC
MEAN_ELEMENT_THEORY = SGP/SGP4

EPOCH          = 2026-02-16T13:03:08.657280
MEAN_MOTION    = 15.37866869
ECCENTRICITY   = .0020167
INCLINATION    = 97.6126
RA_OF_ASC_NODE = 51.3319
ARG_OF_PERICENTER = 309.1589
MEAN_ANOMALY   = 50.7863

EPHEMERIS_TYPE = 0
CLASSIFICATION_TYPE = U
NORAD_CAT_ID   = 14208
ELEMENT_SET_NO = 999
REV_AT_EPOCH   = 32690
BSTAR          = .34293656E-3
MEAN_MOTION_DOT = .12769E-3
MEAN_MOTION_DDOT = 0

CCSDS_OMM_VERS = 2.0
CREATION_DATE  = 
ORIGINATOR     = 

OBJECT_NAME    = COSMOS 1536
OBJECT_ID      = 1984-013A
CENTER_NAME    = EARTH
REF_FRAME      = TEME
TIME_SYSTEM    = UTC
MEAN_ELEMENT_THEORY = SGP/SGP4

EPOCH          = 2026-02-16T07:27:07.622496
MEAN_MOTION    = 15.23528802
ECCENTRICITY   = .0014177
INCLINATION    = 82.5466
RA_OF_ASC_NODE = 129.0944
ARG_OF_PERICENTER = 4.0807
MEAN_ANOMALY   = 356.0543

EPHEMERIS_TYPE = 0
CLASSIFICATION_TYPE = U
NORAD_CAT_ID   = 14699
ELEMENT_SET_NO = 999
REV_AT_EPOCH   = 26936
BSTAR          = .26258E-3
MEAN_MOTION_DOT = .6319E-4
MEAN_MOTION_DDOT = 0

CCSDS_OMM_VERS = 2.0
CREATION_DATE  = 
ORIGINATOR     = 

OBJECT_NAME    = SL-14 R/B
OBJECT_ID      = 1984-027B
CENTER_NAME    = EARTH
REF_FRAME      = TEME
TIME_SYSTEM    = UTC
MEAN_ELEMENT_THEORY = SGP/SGP4

EPOCH          = 2026-02-16T14:47:35.294208
MEAN_MOTION    = 14.85954761
ECCENTRICITY   = .00191141
INCLINATION    = 82.5388
RA_OF_ASC_NODE = 264.7823
ARG_OF_PERICENTER = 46.6882
MEAN_ANOMALY   = 313.5924

EPHEMERIS_TYPE = 0
CLASSIFICATION_TYPE = U
NORAD_CAT_ID   = 14820
ELEMENT_SET_NO = 999
REV_AT_EPOCH   = 24450
BSTAR          = .4764793E-4
MEAN_MOTION_DOT = .442E-5
MEAN_MOTION_DDOT = 0

CCSDS_OMM_VERS = 2.0
CREATION_DATE  = 
ORIGINATOR     = 

OBJECT_NAME    = SL-8 R/B
OBJECT_ID      = 1985-006B
CENTER_NAME    = EARTH
REF_FRAME      = TEME
TIME_SYSTEM    = UTC
MEAN_ELEMENT_THEORY = SGP/SGP4

EPOCH          = 2026-02-16T04:15:19.633248
MEAN_MOTION    = 14.37772488
ECCENTRICITY   = .00192278
INCLINATION    = 74.0460
RA_OF_ASC_NODE = 300.7343
ARG_OF_PERICENTER = 222.8827
MEAN_ANOMALY   = 299.2508

EPHEMERIS_TYPE = 0
CLASSIFICATION_TYPE = U
NORAD_CAT_ID   = 15483
ELEMENT_SET_NO = 999
REV_AT_EPOCH   = 15093
BSTAR          = .82209594E-4
MEAN_MOTION_DOT = .222E-5
MEAN_MOTION_DDOT = 0

CCSDS_OMM_VERS = 2.0
CREATION_DATE  = 
ORIGINATOR     = 

OBJECT_NAME    = SL-12 R/B(2)
OBJECT_ID      = 1985-042D
CENTER_NAME    = EARTH
REF_FRAME      = TEME
TIME_SYSTEM    = UTC
MEAN_ELEMENT_THEORY = SGP/SGP4

EPOCH          = 2026-02-16T14:21:38.677248
MEAN_MOTION    = 14.21976452
ECCENTRICITY   = .00344243
INCLINATION    = 71.1083
RA_OF_ASC_NODE = 132.2896
ARG_OF_PERICENTER = 162.1599
MEAN_ANOMALY   = 299.6761

EPHEMERIS_TYPE = 0
CLASSIFICATION_TYPE = U
NORAD_CAT_ID   = 15772
ELEMENT_SET_NO = 999
REV_AT_EPOCH   = 11139
BSTAR          = .40238405E-4
MEAN_MOTION_DOT = .42E-6
MEAN_MOTION_DDOT = 0

CCSDS_OMM_VERS = 2.0
CREATION_DATE  = 
ORIGINATOR     = 

OBJECT_NAME    = SL-14 R/B
OBJECT_ID      = 1985-069B
CENTER_NAME    = EARTH
REF_FRAME      = TEME
TIME_SYSTEM    = UTC
MEAN_ELEMENT_THEORY = SGP/SGP4

EPOCH          = 2026-02-16T11:20:58.578144
MEAN_MOTION    = 14.86407369
ECCENTRICITY   = .00171336
INCLINATION    = 82.5245
RA_OF_ASC_NODE = 44.8863
ARG_OF_PERICENTER = 262.3589
MEAN_ANOMALY   = 97.5682

EPHEMERIS_TYPE = 0
CLASSIFICATION_TYPE = U
NORAD_CAT_ID   = 15945
ELEMENT_SET_NO = 999
REV_AT_EPOCH   = 16968
BSTAR          = .6263715E-4
MEAN_MOTION_DOT = .578E-5
MEAN_MOTION_DDOT = 0

CCSDS_OMM_VERS = 2.0
CREATION_DATE  = 
ORIGINATOR     = 

OBJECT_NAME    = SL-16 R/B
OBJECT_ID      = 1985-097B
CENTER_NAME    = EARTH
REF_FRAME      = TEME
TIME_SYSTEM    = UTC
MEAN_ELEMENT_THEORY = SGP/SGP4

EPOCH          = 2026-02-16T14:15:21.683808
MEAN_MOTION    = 14.16594460
ECCENTRICITY   = .00096944
INCLINATION    = 71.0024
RA_OF_ASC_NODE = 184.9623
ARG_OF_PERICENTER = 284.0416
MEAN_ANOMALY   = 152.7198

EPHEMERIS_TYPE = 0
CLASSIFICATION_TYPE = U
NORAD_CAT_ID   = 16182
ELEMENT_SET_NO = 999
REV_AT_EPOCH   = 8424
BSTAR          = -.51089107E-4
MEAN_MOTION_DOT = -.15E-5
MEAN_MOTION_DDOT = 0

CCSDS_OMM_VERS = 2.0
CREATION_DATE  = 
ORIGINATOR     = 

OBJECT_NAME    = SL-14 R/B
OBJECT_ID      = 1986-006B
CENTER_NAME    = EARTH
REF_FRAME      = TEME
TIME_SYSTEM    = UTC
MEAN_ELEMENT_THEORY = SGP/SGP4

EPOCH          = 2026-02-16T14:09:47.574144
MEAN_MOTION    = 14.86786581
ECCENTRICITY   = .00762083
INCLINATION    = 82.5254
RA_OF_ASC_NODE = 279.5986
ARG_OF_PERICENTER = 343.8450
MEAN_ANOMALY   = 16.0337

EPHEMERIS_TYPE = 0
CLASSIFICATION_TYPE = U
NORAD_CAT_ID   = 16496
ELEMENT_SET_NO = 999
REV_AT_EPOCH   = 14607
BSTAR          = .6650467E-4
MEAN_MOTION_DOT = .65E-5
MEAN_MOTION_DDOT = 0

CCSDS_OMM_VERS = 2.0
CREATION_DATE  = 
ORIGINATOR     = 

OBJECT_NAME    = COSMOS 1743
OBJECT_ID      = 1986-034A
CENTER_NAME    = EARTH
REF_FRAME      = TEME
TIME_SYSTEM    = UTC
MEAN_ELEMENT_THEORY = SGP/SGP4

EPOCH          = 2026-02-16T13:43:27.841728
MEAN_MOTION    = 15.56987845
ECCENTRICITY   = .00044271
INCLINATION    = 82.5312
RA_OF_ASC_NODE = 95.9681
ARG_OF_PERICENTER = 28.8094
MEAN_ANOMALY   = 331.3405

EPHEMERIS_TYPE = 0
CLASSIFICATION_TYPE = U
NORAD_CAT_ID   = 16719
ELEMENT_SET_NO = 999
REV_AT_EPOCH   = 17696
BSTAR          = .49459631E-3
MEAN_MOTION_DOT = .35813E-3
MEAN_MOTION_DDOT = 0

