SL-3 R/B                
1 13403U 82079B   26047.53377425  .00006513  00000+0  26199-3 0  9996
2 13403  81.1444 218.0513 0024266 237.0579 122.8321 15.24469666374471
SL-14 R/B               
1 13553U 82092B   26047.37423230  .00000572  00000+0  61473-4 0  9999
2 13553  82.5709 161.3304 0020676  16.3178  43.0304 14.86643048325766
SL-3 R/B                
1 13819U 83010B   26047.40122814  .00016678  00000+0  34394-3 0  9998
2 13819  81.1025  28.3298 0018453 117.8926 242.4190 15.45565090354653
SL-3 R/B                
1 14208U 83075B   26047.54385020  .00012769  00000+0  34294-3 0  9993
2 14208  97.6126  51.3319 0020167 309.1589  50.7863 15.37866869326909
COSMOS 1536             
1 14699U 84013A   26047.31050489  .00006319  00000+0  26258-3 0  9998
2 14699  82.5466 129.0944 0014177   4.0807 356.0543 15.23528802269368
SL-14 R/B               
1 14820U 84027B   26047.61638072  .00000442  00000+0  47648-4 0  9990
2 14820  82.5388 264.7823 0019114  46.6882 313.5924 14.85954761244505
SL-8 R/B                
1 15483U 85006B   26047.17731057  .00000222  00000+0  82210-4 0  9992
2 15483  74.0460 300.7343 0019227 222.8827 299.2508 14.37772488150930
SL-12 R/B(2)            
1 15772U 85042D   26047.59836432  .00000042  00000+0  40238-4 0  9996
2 15772  71.1083 132.2896 0034424 162.1599 299.6761 14.21976452111391
SL-14 R/B               
1 15945U 85069B   26047.47290021  .00000578  00000+0  62637-4 0  9993
2 15945  82.5245  44.8863 0017133 262.3589  97.5682 14.86407369169680
SL-16 R/B               
1 16182U 85097B   26047.59400097 -.00000150  00000+0 -51089-4 0  9994
2 16182  71.0024 184.9623 0009694 284.0416 152.7198 14.16594460 84241
SL-14 R/B               
1 16496U 86006B   26047.59013396  .00000650  00000+0  66505-4 0  9997
2 16496  82.5254 279.5986 0076208 343.8450  16.0337 14.86786581146072
COSMOS 1743             
1 16719U 86034A   26047.57185002  .00035813  00000+0  49460-3 0  9997
2 16719  82.5312  95.9681 0004427  28.8094 331.3405 15.56987845176969
